NORAD_CAT_ID,OBJECT_NAME,OBJECT_TYPE,EPOCH,MEAN_MOTION,ECCENTRICITY,INCLINATION,RA_OF_ASC_NODE,ARG_OF_PERICENTER,MEAN_ANOMALY,BSTAR,MEAN_MOTION_DOT,MEAN_MOTION_DDOT,TLE_LINE0,TLE_LINE1,TLE_LINE2,SEMIMAJOR_AXIS,PERIOD,APOGEE,PERIGEE,DECAYED
55928.0,STARLINK-5930,PAYLOAD,2023-05-23 22:00:00,14.99284145,0.0002968,70.0009,358.0378,273.698,275.5544,0.001502,0.00018325,0.0,0 STARLINK-5930,1 55928U 23037Q   23143.91667824  .00018325  00000-0  15020-2 0  9999,2 55928  70.0009 358.0378 0002968 273.6980 275.5544 14.99284145 10933,6947.244,96.046,571.171,567.047,0.0
55928.0,STARLINK-5930,PAYLOAD,2023-05-24 06:00:00,14.99501685,0.0002749,70.0009,357.196,273.3015,274.5393,-0.058772,-0.00674932,0.0,0 STARLINK-5930,1 55928U 23037Q   23144.25001157 -.00674932  00000-0 -58772-1 0  9992,2 55928  70.0009 357.1960 0002749 273.3015 274.5393 14.99501685 10980,6946.572,96.032,570.347,566.527,0.0
55928.0,STARLINK-5930,PAYLOAD,2023-05-24 14:00:01,14.98994774,0.0002832,70.0012,356.3544,268.3072,278.2104,-0.071303,-0.00807152,0.0,0 STARLINK-5930,1 55928U 23037Q   23144.58335648 -.00807152  00000-0 -71303-1 0  9990,2 55928  70.0012 356.3544 0002832 268.3072 278.2104 14.98994774 11035,6948.138,96.064,571.971,568.035,0.0
55928.0,STARLINK-5930,PAYLOAD,2023-05-24 22:00:00,14.98311506,0.0002819,70.0011,355.5135,276.2578,268.1345,0.0011629,0.00013803,0.0,0 STARLINK-5930,1 55928U 23037Q   23144.91667824  .00013803  00000-0  11629-2 0  9997,2 55928  70.0011 355.5135 0002819 276.2578 268.1345 14.98311506 11081,6950.25,96.108,574.074,570.156,0.0
55928.0,STARLINK-5930,PAYLOAD,2023-05-25 14:00:01,14.98330394,0.0002765,70.0012,353.8326,268.5283,270.813,0.0010697,0.00012694,0.0,0 STARLINK-5930,1 55928U 23037Q   23145.58334491  .00012694  00000-0  10697-2 0  9993,2 55928  70.0012 353.8326 0002765 268.5283 270.8130 14.98330394  1304,6950.192,96.107,573.978,570.135,0.0
55928.0,STARLINK-5930,PAYLOAD,2023-05-26 00:00:02,14.9831316,0.0002799,70.0012,352.7818,277.4767,348.7924,0.0024281,0.00028986,0.0,0 STARLINK-5930,1 55928U 23037Q   23146.00002315  .00028986  00000-0  24281-2 0  9993,2 55928  70.0012 352.7818 0002799 277.4767 348.7924 14.98313160  1309,6950.245,96.108,574.055,570.165,0.0
55928.0,STARLINK-5930,PAYLOAD,2023-05-26 06:00:00,14.98339905,0.0002749,70.001,352.1516,274.0784,260.2315,-0.0031003,-0.000369,0.0,0 STARLINK-5930,1 55928U 23037Q   23146.25001157 -.00036900  00000-0 -31003-2 0  9990,2 55928  70.0010 352.1516 0002749 274.0784 260.2315 14.98339905 11288,6950.162,96.106,573.938,570.117,0.0
55928.0,STARLINK-5930,PAYLOAD,2023-05-26 14:00:01,14.98337357,0.0002751,70.0014,351.3111,268.8647,262.9212,0.00076171,9.009e-05,0.0,0 STARLINK-5930,1 55928U 23037Q   23146.58334491  .00009009  00000-0  76171-3 0  9990,2 55928  70.0014 351.3111 0002751 268.8647 262.9212 14.98337357 11336,6950.17,96.107,573.947,570.123,0.0
55928.0,STARLINK-5930,PAYLOAD,2023-05-26 22:00:01,14.98323106,0.0002802,70.0013,350.4705,275.869,253.4735,0.0012551,0.00014912,0.0,0 STARLINK-5930,1 55928U 23037Q   23146.91668981  .00014912  00000-0  12551-2 0  9991,2 55928  70.0013 350.4705 0002802 275.8690 253.4735 14.98323106  1305,6950.214,96.107,574.027,570.132,0.0
55928.0,STARLINK-5930,PAYLOAD,2023-05-27 06:00:02,14.98341542,0.0002781,70.001,349.63,272.3697,254.4546,-0.0028163,-0.00033546,0.0,0 STARLINK-5930,1 55928U 23037Q   23147.25002315 -.00033546  00000-0 -28163-2 0  9994,2 55928  70.0010 349.6300 0002781 272.3697 254.4546 14.98341542 11438,6950.157,96.106,573.955,570.089,0.0
55928.0,STARLINK-5930,PAYLOAD,2023-05-27 14:00:01,14.98312703,0.0002891,70.0014,348.7896,266.3274,257.8642,9.1658e-05,1e-05,0.0,0 STARLINK-5930,1 55928U 23037Q   23147.58334491  .00001000  00000-0  91658-4 0  9992,2 55928  70.0014 348.7896 0002891 266.3274 257.8642 14.98312703 11484,6950.246,96.108,574.121,570.102,0.0
55928.0,STARLINK-5930,PAYLOAD,2023-05-27 22:00:00,14.98293301,0.0002932,70.0013,347.9491,273.1703,248.4916,0.0035062,0.00041954,0.0,0 STARLINK-5930,1 55928U 23037Q   23147.91667824  .00041954  00000-0  35062-2 0  9995,2 55928  70.0013 347.9491 0002932 273.1703 248.4916 14.98293301  1306,6950.306,96.109,574.209,570.134,0.0
55928.0,STARLINK-5930,PAYLOAD,2023-05-27 22:53:00,14.98311979,0.0002559,69.9998,347.857,267.0466,93.04,-0.00012907,-1.632e-05,0.0,0 STARLINK-5930,1 55928U 23037Q   23147.95348282 -.00001632  00000-0 -12907-3 0  9998,2 55928  69.9998 347.8570 0002559 267.0466  93.0400 14.98311979 11535,6950.249,96.108,573.892,570.335,0.0
55928.0,STARLINK-5930,PAYLOAD,2023-05-28 18:06:37,14.98324393,0.0002807,69.9991,345.8363,268.4513,91.6325,-2.7174e-05,-4.17e-06,0.0,0 STARLINK-5930,1 55928U 23037Q   23148.75459704 -.00000417  00000-0 -27174-4 0  9992,2 55928  69.9991 345.8363 0002807 268.4513  91.6325 14.98324393 11657,6950.21,96.107,574.026,570.124,0.0
55928.0,STARLINK-5930,PAYLOAD,2023-05-28 21:18:53,14.98326518,0.0002832,69.9992,345.5002,269.8332,90.2503,2.2353e-05,1.74e-06,0.0,0 STARLINK-5930,1 55928U 23037Q   23148.88811495  .00000174  00000-0  22353-4 0  9997,2 55928  69.9992 345.5002 0002832 269.8332  90.2503 14.98326518 11336,6950.204,96.107,574.037,570.1,0.0
55928.0,STARLINK-5930,PAYLOAD,2023-05-29 14:56:21,14.98326445,0.0002899,69.9991,343.6485,270.053,90.0297,0.0001784,2.036e-05,0.0,0 STARLINK-5930,1 55928U 23037Q   23149.62247237  .00002036  00000-0  17840-3 0  9990,2 55928  69.9991 343.6485 0002899 270.0530  90.0297 14.98326445 11445,6950.204,96.107,574.084,570.054,0.0
55928.0,STARLINK-5930,PAYLOAD,2023-05-29 16:32:29,14.98326872,0.00029,69.9991,343.4801,270.0413,90.0413,0.00017939,2.048e-05,0.0,0 STARLINK-5930,1 55928U 23037Q   23149.68923222  .00002048  00000-0  17939-3 0  9993,2 55928  69.9991 343.4801 0002900 270.0413  90.0413 14.98326872 11790,6950.203,96.107,574.083,570.052,0.0
55928.0,STARLINK-5930,PAYLOAD,2023-05-29 21:20:53,14.9832968,0.0002876,69.9991,342.9751,269.9353,90.1476,0.00020027,2.297e-05,0.0,0 STARLINK-5930,1 55928U 23037Q   23149.88951009  .00002297  00000-0  20027-3 0  9997,2 55928  69.9991 342.9751 0002876 269.9353  90.1476 14.98329680 11486,6950.194,96.107,574.058,570.06,0.0
55928.0,STARLINK-5930,PAYLOAD,2023-05-30 11:46:05,14.98340826,0.0002855,69.9991,341.46,270.1281,89.9551,0.00012323,1.378e-05,0.0,0 STARLINK-5930,1 55928U 23037Q   23150.49034374  .00001378  00000-0  12323-3 0  9992,2 55928  69.9991 341.4600 0002855 270.1281  89.9551 14.98340826 11579,6950.159,96.106,574.009,570.04,0.0
55928.0,STARLINK-5930,PAYLOAD,2023-05-30 14:58:21,14.98341714,0.0002846,69.9991,341.1234,270.0368,90.0464,0.00012807,1.436e-05,0.0,0 STARLINK-5930,1 55928U 23037Q   23150.62386200  .00001436  00000-0  12807-3 0  9997,2 55928  69.9991 341.1234 0002846 270.0368  90.0464 14.98341714 11937,6950.157,96.106,574.0,570.044,0.0
55928.0,STARLINK-5930,PAYLOAD,2023-05-30 21:22:53,14.98343702,0.0002832,69.9991,340.45,270.0756,90.0079,0.00013956,1.573e-05,0.0,0 STARLINK-5930,1 55928U 23037Q   23150.89089814  .00001573  00000-0  13956-3 0  9995,2 55928  69.9991 340.4500 0002832 270.0756  90.0079 14.98343702 11639,6950.151,96.106,573.984,570.047,0.0
55928.0,STARLINK-5930,PAYLOAD,2023-05-31 13:24:14,14.98337214,0.0002735,69.9993,338.7668,270.0117,90.0729,-4.2438e-05,-5.99e-06,0.0,0 STARLINK-5930,1 55928U 23037Q   23151.55850250 -.00000599  00000-0 -42438-4 0  9996,2 55928  69.9993 338.7668 0002735 270.0117  90.0729 14.98337214 11733,6950.171,96.107,573.936,570.135,0.0
55928.0,STARLINK-5930,PAYLOAD,2023-05-31 18:12:38,14.98336163,0.0002758,69.9992,338.2617,270.0187,90.0656,-5.344e-05,-7.31e-06,0.0,0 STARLINK-5930,1 55928U 23037Q   23151.75878229 -.00000731  00000-0 -53440-4 0  9997,2 55928  69.9992 338.2617 0002758 270.0187  90.0656 14.98336163 12106,6950.174,96.107,573.956,570.122,0.0
55928.0,STARLINK-5930,PAYLOAD,2023-05-31 21:24:54,14.98335975,0.000276,69.9992,337.9251,270.1036,89.9806,-5.4479e-05,-7.43e-06,0.0,0 STARLINK-5930,1 55928U 23037Q   23151.89230175 -.00000743  00000-0 -54479-4 0  9990,2 55928  69.9992 337.9251 0002760 270.1036  89.9806 14.98335975 11780,6950.174,96.107,573.958,570.121,0.0
55928.0,STARLINK-5930,PAYLOAD,2023-06-01 05:25:35,14.98336438,0.0002762,69.9992,337.0834,270.0976,89.9867,-7.7588e-05,-1.019e-05,0.0,0 STARLINK-5930,1 55928U 23037Q   23152.22610031 -.00001019  00000-0 -77588-4 0  9994,2 55928  69.9992 337.0834 0002762 270.0976  89.9867 14.98336438 11830,6950.173,96.107,573.958,570.118,0.0
55928.0,STARLINK-5930,PAYLOAD,2023-06-01 21:26:55,14.98336087,0.0002785,69.9991,335.4,268.9019,91.1821,-0.00011817,-1.503e-05,0.0,0 STARLINK-5930,1 55928U 23037Q   23152.89369795 -.00001503  00000-0 -11817-3 0  9995,2 55928  69.9991 335.4000 0002785 268.9019  91.1821 14.98336087 12279,6950.174,96.107,573.975,570.103,0.0
55928.0,STARLINK-5930,PAYLOAD,2023-06-02 13:28:16,14.98327671,0.0002848,69.999,333.7166,269.1902,90.8931,-3.24e-05,-4.8e-06,0.0,0 STARLINK-5930,1 55928U 23037Q   23153.56129945 -.00000480  00000-0 -32400-4 0  9996,2 55928  69.9990 333.7166 0002848 269.1902  90.8931 14.98327671 12037,6950.2,96.107,574.045,570.086,0.0
55928.0,STARLINK-5930,PAYLOAD,2023-06-02 21:28:56,14.98327064,0.0002885,69.9991,332.8749,270.0416,90.0412,-3.2513e-05,-4.81e-06,0.0,0 STARLINK-5930,1 55928U 23037Q   23153.89510029 -.00000481  00000-0 -32513-4 0  9995,2 55928  69.9991 332.8749 0002885 270.0416  90.0412 14.98327064 12084,6950.202,96.107,574.072,570.062,0.0
55928.0,STARLINK-5930,PAYLOAD,2023-06-03 13:30:17,14.98328238,0.0003022,69.9986,331.1911,271.2247,88.8566,2.5126e-05,2.07e-06,0.0,0 STARLINK-5930,1 55928U 23037Q   23154.56269824  .00000207  00000-0  25126-4 0  9990,2 55928  69.9986 331.1911 0003022 271.2247  88.8566 14.98328238 12180,6950.198,96.107,574.164,569.963,0.0
55928.0,STARLINK-5930,PAYLOAD,2023-06-03 21:30:57,14.98331284,0.0003052,69.9988,330.3492,270.9117,89.1692,1.3692e-05,7e-07,0.0,0 STARLINK-5930,1 55928U 23037Q   23154.89649659  .00000070  00000-0  13692-4 0  9997,2 55928  69.9988 330.3492 0003052 270.9117  89.1692 14.98331284 12237,6950.189,96.107,574.175,569.933,0.0
